[{"OBJECT_NAME":"STARLINK-35929","OBJECT_ID":"2025-271J","EPOCH":"2026-03-09T12:25:18.362496","MEAN_MOTION":15.30143185,"ECCENTRICITY":0.00016389,"INCLINATION":53.1596,"RA_OF_ASC_NODE":140.4994,"ARG_OF_PERICENTER":48.6022,"MEAN_ANOMALY":311.512,"EPHEMERIS_TYPE":0,"CLASSIFICATION_TYPE":"U","NORAD_CAT_ID":66625,"ELEMENT_SET_NO":999,"REV_AT_EPOCH":1754,"BSTAR":0.00085400054,"MEAN_MOTION_DOT":0.00024975,"MEAN_MOTION_DDOT":0},{"OBJECT_NAME":"CZ-4B DEB","OBJECT_ID":"1999-057DZ","EPOCH":"2026-03-09T09:52:12.897696","MEAN_MOTION":15.33653758,"ECCENTRICITY":0.00127381,"INCLINATION":98.4932,"RA_OF_ASC_NODE":238.6814,"ARG_OF_PERICENTER":254.7139,"MEAN_ANOMALY":105.2693,"EPHEMERIS_TYPE":0,"CLASSIFICATION_TYPE":"U","NORAD_CAT_ID":26235,"ELEMENT_SET_NO":999,"REV_AT_EPOCH":38912,"BSTAR":0.0023807093,"MEAN_MOTION_DOT":0.00078286,"MEAN_MOTION_DDOT":0}]
